STARLINK-36843          
1 67856U 26034G   26076.24949696  .00302246  00000+0  14761-2 0  9994
2 67856  53.1580 173.4082 0001813  61.9115 298.2091 15.80958041  5138
STARLINK-36828          
1 67857U 26034H   26076.25024656  .00309368  00000+0  15099-2 0  9993
2 67857  53.1589 173.4126 0001383  83.7939 276.3241 15.80952679  5130
STARLINK-36837          
1 67858U 26034J   26076.24874707  .00289047  00000+0  14072-2 0  9994
2 67858  53.1582 173.4035 0001509  62.9836 297.1341 15.81062855  5139
STARLINK-36393          
1 67859U 26034K   26076.24799548  .00471509  00000+0  22526-2 0  9993
2 67859  53.1585 173.3977 0001754 108.8386 251.2828 15.80987389  5137
STARLINK-35873          
1 67860U 26034L   26075.99437221  .00293444  00000+0  14348-2 0  9996
2 67860  53.1595 174.6594 0001683 101.2504 258.8708 15.80955738  5121
STARLINK-36325          
1 67861U 26034M   26075.99361841  .00253728  00000+0  12473-2 0  9999
2 67861  53.1591 174.6551 0001198  76.7670 283.3487 15.80949258  5095
STARLINK-36332          
1 67862U 26034N   26075.99286899  .00272918  00000+0  13380-2 0  9999
2 67862  53.1593 174.6499 0001201  48.8998 311.2129 15.80954058  5095
STARLINK-36835          
1 67863U 26034P   26075.99211952  .00272533  00000+0  13365-2 0  9994
2 67863  53.1598 174.6444 0001468  54.0648 306.0511 15.80949793  5094
STARLINK-36831          
1 67864U 26034Q   26076.24424471  .00479664  00000+0  22905-2 0  9990
2 67864  53.1584 173.3724 0001098  80.5978 279.5169 15.80974376  5139
STARLINK-36738          
1 67865U 26034R   26075.99063827  .00456639  00000+0  21860-2 0  9992
2 67865  53.1586 174.6343 0005308  72.8246 287.3357 15.80975601  5096
STARLINK-36780          
1 67866U 26034S   26075.98988217  .00324297  00000+0  15805-2 0  9997
2 67866  53.1586 174.6283 0003909  78.4570 281.6892 15.80939615  5093
STARLINK-36761          
1 67867U 26034T   26075.98913140  .00416052  00000+0  20007-2 0  9992
2 67867  53.1593 174.6230 0004105  67.8576 292.2883 15.80988110  5093
STARLINK-36762          
1 67868U 26034U   26075.98837411  .00412658  00000+0  19850-2 0  9991
2 67868  53.1594 174.6183 0002512  78.0419 282.0886 15.80993779  5099
STARLINK-36779          
1 67869U 26034V   26075.98763523  .00350791  00000+0  17037-2 0  9998
2 67869  53.1591 174.6127 0004878  73.4018 286.7540 15.80941495  5092
STARLINK-36770          
1 67870U 26034W   26075.98613378  .00303108  00000+0  14818-2 0  9996
2 67870  53.1588 174.6023 0004690  77.5743 282.5804 15.80926133  5096
STARLINK-36769          
1 67871U 26034X   26075.98687358  .00393941  00000+0  18992-2 0  9997
2 67871  53.1585 174.6082 0002535  61.9350 298.1929 15.80994559  5094
STARLINK-36786          
1 67872U 26034Y   26075.66926932  .00209558  00000+0  10374-2 0  9993
2 67872  53.1590 176.1817 0001245 100.8286 259.2877 15.80920527  5041
STARLINK-36783          
1 67873U 26034Z   26075.98462279  .00377000  00000+0  18218-2 0  9991
2 67873  53.1592 174.5922 0002306  45.6515 314.4697 15.80988163  5092
STARLINK-36730          
1 67874U 26034AA  26075.98386860  .00262336  00000+0  12885-2 0  9992
2 67874  53.1588 174.5879 0001200  69.9242 290.1910 15.80943058  5099
STARLINK-36727          
1 67875U 26034AB  26076.23599498  .00320578  00000+0  15576-2 0  9998
2 67875  53.1595 173.3188 0001355  58.0556 302.0599 15.81020414  5130
STARLINK-36743          
1 67876U 26034AC  26075.72949211  .00302137  00000+0  14812-2 0  9997
2 67876  53.1596 175.8467 0002117  24.7881 335.3243 15.80875092  5052
STARLINK-36784          
1 67877U 26034AD  26076.23449247  .00389703  00000+0  18810-2 0  9995
2 67877  53.1587 173.3049 0000811  75.2219 284.8894 15.80978745  5135
STARLINK-36689          
1 67878U 26034AE  26075.98086910  .00328787  00000+0  15997-2 0  9999
2 67878  53.1593 174.5673 0001618  68.0691 292.0503 15.80968514  5095
STARLINK-36818          
1 67879U 26035A   26076.25002315  .00018576  00000+0  12520-3 0  9991
2 67879  97.2866   9.0025 0001443 109.3320 204.0149 15.75177973  4975
STARLINK-36821          
1 67880U 26035B   26076.25002315  .00036295  00000+0  24327-3 0  9999
2 67880  97.2865   9.0087 0001387 106.8619 222.4777 15.75181098  4978
STARLINK-36808          
1 67881U 26035C   26076.31017267  .00089342  00000+0  46047-3 0  9993
2 67881  97.2893   9.0882 0001024 153.4818 206.6503 15.80908400  5040
STARLINK-36817          
1 67882U 26035D   26075.54831140  .00248849  00000+0  12578-2 0  9992
2 67882  97.2904   8.2858 0001164 101.5474 258.5925 15.80909615  4924
STARLINK-36856          
1 67883U 26035E   26076.30867295  .00399573  00000+0  19830-2 0  9997
2 67883  97.2899   9.0892 0000586 173.1917 186.9359 15.80920961  5045
STARLINK-36842          
1 67884U 26035F   26076.25002315  .00025799  00000+0  17339-3 0  9995
2 67884  97.2868   9.0137 0001602  84.1323 261.2067 15.75179217  4974
STARLINK-36826          
1 67885U 26035G   26076.25002315 -.01823408  00000+0 -12800-1 0  9998
2 67885  97.2864   9.0314 0001264 107.3420 286.3388 15.77133050  4979
STARLINK-36390          
1 67886U 26035H   26076.25002315  .00016270  00000+0  10975-3 0  9990
2 67886  97.2867   9.0177 0001366 127.5839 229.7476 15.75189648  5029
STARLINK-36368          
1 67887U 26035J   26076.30491685  .00339491  00000+0  16966-2 0  9997
2 67887  97.2912   9.0928 0000390 177.5890 182.5380 15.80923279  5047
STARLINK-36801          
1 67888U 26035K   26075.92436152  .00313736  00000+0  15734-2 0  9999
2 67888  97.2873   8.6915 0001028 102.4178 257.7205 15.80914215  4983
STARLINK-36372          
1 67889U 26035L   26076.30266855  .00365981  00000+0  18160-2 0  9999
2 67889  97.2908   9.0942 0001563  51.1819 308.9589 15.81012653  5042
STARLINK-36363          
1 67890U 26035M   26076.25002315  .00034943  00000+0  23436-3 0  9998
2 67890  97.2871   9.0265 0001171  96.8171 280.5288 15.75172378  4979
STARLINK-36816          
1 67891U 26035N   26076.29289768  .00332215  00000+0  16576-2 0  9991
2 67891  97.2900   9.1050 0001097  83.0999 277.0394 15.80978724  5042
STARLINK-36813          
1 67892U 26035P   26075.53778856  .00243268  00000+0  12306-2 0  9995
2 67892  97.2901   8.2927 0001109 100.7977 259.3416 15.80905579  4926
STARLINK-36803          
1 67893U 26035Q   26076.30191649  .00366189  00000+0  18168-2 0  9991
2 67893  97.2896   9.0952 0001189  88.7775 271.3630 15.81014874  5042
STARLINK-36846          
1 67894U 26035R   26076.25002315 -.00147874  00000+0 -10007-2 0  9991
2 67894  97.2883   9.0192 0001644 103.9940 263.2138 15.75351695  4977
STARLINK-36866          
1 67895U 26035S   26076.25002315  .00085947  00000+0  57213-3 0  9993
2 67895  97.2900   9.0366 0001516 107.0749 304.2394 15.75156635  4978
STARLINK-36877          
1 67896U 26035T   26076.30116656  .00288463  00000+0  14403-2 0  9995
2 67896  97.2917   9.0943 0001373  64.7578 295.3833 15.81076229  5042
STARLINK-36870          
1 67897U 26035U   26075.72919246  .00234777  00000+0  11883-2 0  9995
2 67897  97.2910   8.4936 0001490 129.3598 230.7802 15.80916348  4953
STARLINK-36810          
1 67898U 26035V   26076.29816913  .00451656  00000+0  22063-2 0  9995
2 67898  97.2917   9.0981 0003523  33.8078 326.3414 15.81135397  5049
STARLINK-36878          
1 67899U 26035W   26076.29665724  .00424873  00000+0  20920-2 0  9999
2 67899  97.2901   9.0997 0001364  50.2204 309.9184 15.81030703  5041
STARLINK-36361          
1 67900U 26035X   26076.29589973  .00336564  00000+0  16732-2 0  9998
2 67900  97.2906   9.1013 0000345 219.2857 140.8386 15.81044852  5044
STARLINK-36336          
1 67901U 26035Y   26076.29365110  .00443776  00000+0  21779-2 0  9995
2 67901  97.2903   9.1061 0001295  30.0979 330.0363 15.81054808  5044
STARLINK-36876          
1 67902U 26035Z   26075.34561692  .00102450  00000+0  52680-3 0  9991
2 67902  97.2882   8.0995 0004104 191.0318 169.0861 15.80911891  4890
STARLINK-36257          
1 67903U 26035AA  26076.25002315  .00030364  00000+0  20389-3 0  9990
2 67903  97.2883   9.0346 0001359 116.2827 287.0562 15.75170736  5020
STARLINK-36814          
1 67904U 26036A   26076.25002315  .00080205  00000+0  13620-2 0  9990
2 67904  43.0002 204.9762 0001446 269.6261 349.5839 15.50517540  4866
STARLINK-36729          
1 67905U 26036B   26076.25002315 -.01548574  00000+0 -26456-1 0  9992
2 67905  43.0008 204.3394 0001715 274.9181 242.8351 15.53335096  4868
STARLINK-36763          
1 67906U 26036C   26076.25002315 -.01867075  00000+0 -31360-1 0  9993
2 67906  42.9998 204.2695 0001212 272.0690 272.7546 15.54399825  4863
STARLINK-36742          
1 67907U 26036D   26076.25002315 -.01587778  00000+0 -27166-1 0  9992
2 67907  43.0005 204.3166 0001491 280.6056 246.3054 15.53370126  4862
STARLINK-36827          
1 67908U 26036E   26076.25002315 -.01867143  00000+0 -27407-1 0  9998
2 67908  43.0003 204.0505 0001443 268.9945   4.5191 15.57986780  4867
STARLINK-36822          
1 67909U 26036F   26076.25002315 -.01807809  00000+0 -30684-1 0  9993
2 67909  42.9999 204.2605 0001344 270.4088 278.3846 15.54002002  4860
STARLINK-36847          
1 67910U 26036G   26076.25002315 -.01566307  00000+0 -27072-1 0  9997
2 67910  43.0001 204.3019 0001626 276.4902 255.5276 15.53051590  4861
STARLINK-36736          
1 67911U 26036H   26076.25002315 -.01865386  00000+0 -23962-1 0  9991
2 67911  42.9997 203.8538 0001601 273.2936  79.2957 15.61436777  4869
STARLINK-36676          
1 67912U 26036J   26076.25002315 -.01860864  00000+0 -25939-1 0  9994
2 67912  42.9998 203.9409 0001588 266.1626  51.3955 15.59323334  4860
STARLINK-36690          
1 67913U 26036K   26076.25002315 -.01860570  00000+0 -25895-1 0  9990
2 67913  42.9998 203.9283 0001594 268.0044  54.6325 15.59363568  4863
STARLINK-36724          
1 67914U 26036L   26076.25002315 -.01860629  00000+0 -25516-1 0  9996
2 67914  42.9997 203.8876 0001542 269.5322  69.0893 15.59746810  4863
